     2.100          NAVIGATION                              RINEX VERSION / TYPE
fic2rin                                 06/02/2017 01:04:17 PGM / RUN BY / DATE
                                                            END OF HEADER
 6 17  6  1 10  0  0.0  .358541496098D-03  .500222085975D-11  .000000000000D+00
     .830000000000D+02 -.697812500000D+02  .441482675240D-08  .162676488952D+01
    -.350177288055D-05  .785464304499D-03  .584125518799D-05  .515368040085D+04
     .381600000000D+06  .558793544769D-07 -.252623002908D+01  .204890966415D-07
     .967381749230D+00  .269343750000D+03 -.107940193185D+01 -.814748223248D-08
     .192865176466D-10  .100000000000D+01  .195100000000D+04  .000000000000D+00
     .240000000000D+01  .000000000000D+00  .465661287308D-08  .830000000000D+02
     .374406000000D+06  .400000000000D+01
 7 17  6  1 10  0  0.0  .344901345670D-03 -.443378667114D-11  .000000000000D+00
     .139000000000D+03  .120937500000D+02  .481448625696D-08  .928117039686D+00
     .890344381332D-06  .105865750229D-01  .658258795738D-05  .515373674583D+04
     .381600000000D+06  .111758708954D-07  .639124027521D+00  .122934579849D-06
     .962490037905D+00  .253062500000D+03 -.260065822024D+01 -.835677666472D-08
    -.515735768179D-09  .100000000000D+01  .195100000000D+04  .000000000000D+00
     .240000000000D+01  .000000000000D+00 -.111758708954D-07  .139000000000D+03
     .374406000000D+06  .400000000000D+01
 8 17  6  1 10  0  0.0 -.616642646492D-04 -.125055521494D-11  .000000000000D+00
     .810000000000D+02  .250312500000D+02  .434660962517D-08 -.206219659097D+01
     .134482979774D-05  .257208675612D-02  .537745654583D-05  .515364110184D+04
     .381600000000D+06  .782310962677D-07  .270273950859D+01  .558793544769D-07
     .966979462850D+00  .281906250000D+03 -.665882696596D+00 -.818605526777D-08
     .262153776900D-09  .100000000000D+01  .195100000000D+04  .000000000000D+00
     .240000000000D+01  .000000000000D+00  .512227416039D-08  .810000000000D+02
     .374406000000D+06  .400000000000D+01
 9 17  6  1 10  0  0.0  .375411473215D-03  .807176547823D-11  .000000000000D+00
     .870000000000D+02  .451875000000D+02  .506735393277D-08 -.256639410848D+01
     .240467488766D-05  .717756338418D-03  .765360891819D-05  .515361997986D+04
     .381600000000D+06  .204890966415D-07 -.439042022354D+00  .149011611938D-07
     .953644407186D+00  .230250000000D+03  .194815294103D+01 -.823641450830D-08
     .243224416988D-09  .100000000000D+01  .195100000000D+04  .000000000000D+00
     .240000000000D+01  .000000000000D+00  .139698386192D-08  .870000000000D+02
     .374406000000D+06  .400000000000D+01
10 17  6  1 10  0  0.0 -.380952842534D-04  .109139364213D-10  .000000000000D+00
     .560000000000D+02 -.253437500000D+02  .451090218290D-08 -.642903738241D+00
    -.124983489513D-05  .253421324305D-02  .993534922600D-05  .515367506409D+04
     .381600000000D+06  .316649675369D-07 -.147909098242D+01  .186264514923D-07
     .959657853373D+00  .186562500000D+03 -.276673387689D+01 -.797033199632D-08
     .176078762959D-09  .100000000000D+01  .195100000000D+04  .000000000000D+00
     .240000000000D+01  .000000000000D+00  .186264514923D-08  .560000000000D+02
     .374406000000D+06  .400000000000D+01
11 17  6  1 10  0  0.0 -.692179892212D-03 -.272848410532D-11  .000000000000D+00
     .870000000000D+02 -.425000000000D+02  .615489923340D-08  .941967103957D+00
    -.243261456490D-05  .167862885864D-01  .433064997196D-05  .515371112251D+04
     .381600000000D+06 -.253319740295D-06 -.292047204317D+01 -.244006514549D-06
     .901202767330D+00  .266937500000D+03  .164478953828D+01 -.931003065729D-08
     .653598653579D-10  .100000000000D+01  .195100000000D+04  .000000000000D+00
     .240000000000D+01  .000000000000D+00 -.121071934700D-07  .870000000000D+02
     .374406000000D+06  .400000000000D+01
12 17  6  1 10  0  0.0  .382376369089D-03 -.795807864051D-12  .000000000000D+00
     .190000000000D+02  .194375000000D+02  .378194324740D-08  .328350126929D+00
     .107660889626D-05  .666599301621D-02  .887364149094D-05  .515378033447D+04
     .381600000000D+06 -.800937414169D-07  .172379151648D+01  .149011611938D-06
     .989002834338D+00  .223218750000D+03  .884901714017D+00 -.778103839720D-08
    -.185364864048D-09  .100000000000D+01  .195100000000D+04  .000000000000D+00
     .240000000000D+01  .000000000000D+00 -.125728547573D-07  .190000000000D+02
     .374406000000D+06  .400000000000D+01
13 17  6  1 10  0  0.0 -.838432461023D-04 -.136424205266D-11  .000000000000D+00
     .510000000000D+02  .431250000000D+02  .463983612494D-08  .199079652613D+01
     .217556953430D-05  .369460764341D-02  .739842653275D-05  .515368365288D+04
     .381600000000D+06  .167638063431D-07 -.312796457982D+00 -.670552253723D-07
     .969777286362D+00  .241218750000D+03  .183513962722D+01 -.797426073140D-08
     .134291308058D-09  .100000000000D+01  .195100000000D+04  .000000000000D+00
     .240000000000D+01  .000000000000D+00 -.111758708954D-07  .510000000000D+02
     .374406000000D+06  .400000000000D+01
14 17  6  1 10  0  0.0 -.728042796254D-04 -.136424205266D-11  .000000000000D+00
     .400000000000D+02  .433750000000D+02  .478269921862D-08 -.291723158014D+01
     .223331153393D-05  .915267330129D-02  .704824924469D-05  .515365349007D+04
     .381600000000D+06  .204890966415D-06 -.352263884085D+00 -.949949026108D-07
     .962273407533D+00  .242468750000D+03 -.195923221505D+01 -.804319217410D-08
     .140005831805D-09  .100000000000D+01  .195100000000D+04  .000000000000D+00
     .240000000000D+01  .000000000000D+00 -.931322574615D-08  .400000000000D+02
     .374406000000D+06  .400000000000D+01
15 17  6  1 10  0  0.0 -.350945163518D-03 -.682121026330D-12  .000000000000D+00
     .104000000000D+03  .420312500000D+02  .549165732100D-08  .279265383308D+01
     .215135514736D-05  .915624224581D-02  .796467065811D-05  .515380304146D+04
     .381600000000D+06 -.104308128357D-06 -.500729243029D+00 -.149011611938D-06
     .929219475732D+00  .209843750000D+03  .581863472606D+00 -.827391607039D-08
     .219294848796D-09  .100000000000D+01  .195100000000D+04  .000000000000D+00
     .340000000000D+01  .000000000000D+00 -.107102096081D-07  .104000000000D+03
     .374406000000D+06  .400000000000D+01
16 17  6  1 10  0  0.0  .342158600688D-04  .568434188608D-12  .000000000000D+00
     .500000000000D+02  .330625000000D+02  .367122434980D-08 -.166700584087D+01
     .168196856976D-05  .934811413754D-02  .838376581669D-05  .515370603180D+04
     .381600000000D+06  .335276126862D-07  .174265946437D+01 -.143423676491D-06
     .989479581785D+00  .234750000000D+03  .454163422415D+00 -.760495963424D-08
    -.642883921553D-10  .100000000000D+01  .195100000000D+04  .000000000000D+00
     .240000000000D+01  .000000000000D+00 -.107102096081D-07  .500000000000D+02
     .374406000000D+06  .400000000000D+01
17 17  6  1 10  0  0.0 -.176880043000D-03  .181898940355D-11  .000000000000D+00
     .240000000000D+02  .229687500000D+02  .401409577463D-08 -.261123875770D+01
     .126101076603D-05  .116271555889D-01  .553391873837D-05  .515363572693D+04
     .381600000000D+06  .894069671631D-07  .276035384537D+01 -.108033418655D-06
     .980243337310D+00  .283593750000D+03 -.184821840450D+01 -.778460997454D-08
     .295369446180D-09  .100000000000D+01  .195100000000D+04  .000000000000D+00
     .240000000000D+01  .000000000000D+00 -.111758708954D-07  .240000000000D+02
     .374406000000D+06  .400000000000D+01
18 17  6  1 10  0  0.0  .618148129433D-03  .170530256582D-11  .000000000000D+00
     .880000000000D+02 -.201562500000D+02  .534415117678D-08 -.116985098215D+01
    -.663101673126D-06  .180966103217D-01  .951439142227D-05  .515376514053D+04
     .381600000000D+06 -.428408384323D-07 -.152140032146D+01  .450760126114D-06
     .925250861327D+00  .180062500000D+03 -.179972713208D+01 -.849035365731D-08
     .155720772109D-09  .100000000000D+01  .195100000000D+04  .000000000000D+00
     .240000000000D+01  .000000000000D+00 -.111758708954D-07  .880000000000D+02
     .374406000000D+06  .400000000000D+01
19 17  6  1 10  0  0.0 -.501460861415D-03  .147792889038D-11  .000000000000D+00
     .260000000000D+02  .202187500000D+02  .412088593715D-08  .466206591216D+00
     .121258199215D-05  .102915549651D-01  .576488673687D-05  .515366578484D+04
     .381600000000D+06 -.247731804848D-06  .280817346724D+01  .912696123123D-07
     .977531877166D+00  .279875000000D+03  .983609898020D+00 -.813462455405D-08
     .192150860997D-09  .100000000000D+01  .195100000000D+04  .000000000000D+00
     .240000000000D+01  .000000000000D+00 -.153668224812D-07  .260000000000D+02
     .374406000000D+06  .400000000000D+01
20 17  6  1 10  0  0.0  .474455300719D-03  .147792889038D-11  .000000000000D+00
     .120000000000D+03 -.449062500000D+02  .528700593930D-08  .278164007585D+01
    -.249221920967D-05  .432815449312D-02  .953488051891D-05  .515368579865D+04
     .381600000000D+06  .502914190292D-07 -.157276020800D+01 -.260770320892D-07
     .926614204424D+00  .178312500000D+03  .159911247990D+01 -.823855745470D-08
     .108575951196D-09  .100000000000D+01  .195100000000D+04  .000000000000D+00
     .340000000000D+01  .000000000000D+00 -.838190317154D-08  .120000000000D+03
     .374406000000D+06  .400000000000D+01
21 17  6  1 10  0  0.0 -.503595918417D-03  .227373675443D-11  .000000000000D+00
     .700000000000D+02 -.554687500000D+02  .512807074759D-08 -.241722294715D+00
    -.291503965855D-05  .239735639188D-01  .621937215328D-05  .515367230797D+04
     .381600000000D+06 -.368803739548D-06 -.256198731061D+01  .204890966415D-06
     .939927755192D+00  .254562500000D+03 -.166805889319D+01 -.885608317713D-08
     .135362781260D-09  .100000000000D+01  .195100000000D+04  .000000000000D+00
     .340000000000D+01  .000000000000D+00 -.977888703346D-08  .700000000000D+02
     .374406000000D+06  .400000000000D+01
